ONEWEB-0309             
1 49095U 21075W   23338.50447506 -.00000011  00000+0 -61220-4 0  9990
2 49095  87.9207 189.8824 0001931 100.4074 259.7276 13.17648297111674
ONEWEB-0310             
1 49096U 21075X   23338.56412153 -.00000151  00000+0 -45434-3 0  9990
2 49096  87.9009 174.7671 0001512  95.9015 264.2286 13.12445005113778
ONEWEB-0311             
1 49097U 21075Y   23338.51081073  .00000055  00000+0  10895-3 0  9993
2 49097  87.9212 189.8806 0001974  73.0617 287.0731 13.17650212111723
ONEWEB-0312             
1 49098U 21075Z   23338.52345940 -.00000050  00000+0 -16087-3 0  9997
2 49098  87.9225 189.9058 0002069  84.4880 275.6487 13.17652400111702
ONEWEB-0313             
1 49099U 21075AA  23338.57831012  .00000050  00000+0  96025-4 0  9992
2 49099  87.9207 189.9027 0001884  85.4564 274.6783 13.17648842111706
ONEWEB-0314             
1 49100U 21075AB  23338.57198908 -.00000007  00000+0 -51084-4 0  9995
2 49100  87.9209 189.8677 0002103  86.3929 273.7443 13.17649827111674
ONEWEB-0315             
1 49101U 21075AC  23338.53873113  .00000421  00000+0  11361-2 0  9990
2 49101  87.9000 174.7783 0001391  77.6099 282.5185 13.12445022113752
ONEWEB-0316             
1 49102U 21075AD  23338.54154403  .00000054  00000+0  10471-3 0  9990
2 49102  87.9136 159.6125 0001716  81.5971 278.5356 13.18687973115216
